[{"OBJECT_NAME":"STARLINK-34113","OBJECT_ID":"2025-101S","EPOCH":"2026-03-09T04:14:12.566976","MEAN_MOTION":15.27569228,"ECCENTRICITY":0.00026479,"INCLINATION":43.0092,"RA_OF_ASC_NODE":1.1306,"ARG_OF_PERICENTER":277.4839,"MEAN_ANOMALY":82.5712,"EPHEMERIS_TYPE":0,"CLASSIFICATION_TYPE":"U","NORAD_CAT_ID":64010,"ELEMENT_SET_NO":999,"REV_AT_EPOCH":4697,"BSTAR":0.00066187856,"MEAN_MOTION_DOT":0.0001799,"MEAN_MOTION_DDOT":0},{"OBJECT_NAME":"REAL","OBJECT_ID":"2025-154G","EPOCH":"2026-03-09T17:20:09.670560","MEAN_MOTION":15.28408058,"ECCENTRICITY":0.00018528,"INCLINATION":97.4133,"RA_OF_ASC_NODE":137.2581,"ARG_OF_PERICENTER":118.5876,"MEAN_ANOMALY":241.555,"EPHEMERIS_TYPE":0,"CLASSIFICATION_TYPE":"U","NORAD_CAT_ID":64875,"ELEMENT_SET_NO":999,"REV_AT_EPOCH":3483,"BSTAR":0.0008290401,"MEAN_MOTION_DOT":0.00022901,"MEAN_MOTION_DDOT":0}]
